NOAA 20 (JPSS-1)        
1 43013U 17073A   24333.14712625  .00000305  00000+0  16537-3 0  9994
2 43013  98.7225 268.4102 0002351  91.1436 269.0010 14.19575737364161
SHENZHOU-19 (SZ-19)     
1 61683U 24194A   24332.58926474  .00022006  00000+0  27558-3 0  9992
2 61683  41.4649 166.9165 0001333  15.6095 344.4784 15.59254570204197
2024-194B               
1 61684U 24194B   24304.16570017 -.00002234  70709-5  00000+0 0  9994
2 61684  41.3050 339.9579 0264171 116.1457 292.8724 15.65002779    52
STARLINK-11335 [DTC]    
1 61687U 24195A   24332.95339482 -.00008120  00000+0 -45649-4 0  9990
2 61687  53.1539 168.1250 0000232  67.4110 292.6935 15.76739830  5690
STARLINK-11344 [DTC]    
1 61688U 24195B   24332.94851085  .00009992  00000+0  64934-4 0  9992
2 61688  53.1533 168.0902 0002182 294.0648  66.0145 15.76744197  5708
STARLINK-11312 [DTC]    
1 61689U 24195C   24332.94362842  .00007935  00000+0  52414-4 0  9996
2 61689  53.1543 168.0600 0001690 303.3579  56.7280 15.76737859  5708
STARLINK-11340 [DTC]    
1 61690U 24195D   24332.93875004  .00011216  00000+0  72391-4 0  9999
2 61690  53.1564 168.0354 0001229  83.5976 276.5184 15.76742566  5712
STARLINK-11339 [DTC]    
1 61691U 24195E   24331.97819621  .00004618  00000+0  32210-4 0  9990
2 61691  53.1570 172.7058 0001427 335.6652  24.4301 15.76721104  5564
STARLINK-11315 [DTC]    
1 61692U 24195F   24332.93386659  .00008981  00000+0  58778-4 0  9992
2 61692  53.1560 167.9955 0000812 117.1402 242.9701 15.76740634  5716
STARLINK-11366 [DTC]    
1 61693U 24195G   24332.54378310  .00006929  00000+0  46290-4 0  9991
2 61693  53.1540 169.8257 0001073 164.2259 195.8796 15.76731206  5652
STARLINK-11348 [DTC]    
1 61694U 24195H   24332.91921574  .00019743  00000+0  12432-3 0  9997
2 61694  53.1544 167.9018 0000501 145.1162 214.9891 15.76731895  5717
STARLINK-11327 [DTC]    
1 61695U 24195J   24332.97771716  .00010473  00000+0  67859-4 0  9990
2 61695  53.1550 167.5521 0000514 145.0849 215.0206 15.76743341  5716
STARLINK-11341 [DTC]    
1 61696U 24195K   24332.27559197  .00026809  00000+0  16746-3 0  9999
2 61696  53.1553 170.9940 0000117 140.5262 219.5768 15.76702935  5616
STARLINK-11346 [DTC]    
1 61697U 24195L   24333.00001157  .00090301  00000+0  55133-3 0  9991
2 61697  53.1549 167.3326 0001150  61.2512 120.9474 15.76669045  5720
STARLINK-11336 [DTC]    
1 61698U 24195M   24333.16667824 -.00653417  00000+0 -27866-2 0  9994
2 61698  53.1593 166.1730 0000418  64.1061 144.7803 15.86038762  5742
STARLINK-11296 [DTC]    
1 61699U 24195N   24333.16667824  .00037443  00000+0  23205-3 0  9992
2 61699  53.1551 166.4385 0000715  60.7533  18.1013 15.76699920  5758
STARLINK-32349          
1 61700U 24195P   24333.16667824 -.00082548  00000+0 -20758-2 0  9992
2 61700  53.1587 169.0895 0001228  90.3925 114.7578 15.39624250  5560
STARLINK-32461          
1 61701U 24195Q   24333.16667824 -.00003289  00000+0 -72302-4 0  9992
2 61701  53.1586 169.0858 0000802  72.5326 134.3046 15.39614025  5560
STARLINK-32299          
1 61702U 24195R   24333.16667824 -.00038370  00000+0 -95245-3 0  9992
2 61702  53.1584 169.0382 0001167  82.0252 148.6993 15.39671968  5726
STARLINK-32335          
1 61703U 24195S   24332.91667824  .00076943  00000+0  19172-2 0  9995
2 61703  53.1590 170.2131 0000748 107.6986 178.4431 15.39572334  5749
STARLINK-32387          
1 61704U 24195T   24333.16667824 -.00046079  00000+0 -11482-2 0  9999
2 61704  53.1585 168.9827 0001160  87.6670 170.6584 15.39640227  5566
STARLINK-32515          
1 61705U 24195U   24332.91667824 -.01494590  00000+0 -38491-1 0  9996
2 61705  53.1590 170.1184 0001010  74.9745 258.2817 15.41765516  5597
STARLINK-32533          
1 61706U 24195V   24333.16667824 -.00047900  00000+0 -11943-2 0  9997
2 61706  53.1585 168.9865 0000929  83.6378 172.8576 15.39639570  5512
STARLINK-32376          
1 61707U 24196A   24333.16667824 -.01509772  00000+0 -32946-1 0  9995
2 61707  53.1601 112.6472 0001194  78.1847  99.3874 15.46636030  5696
STARLINK-32402          
1 61708U 24196B   24332.91667824 -.00024013  00000+0 -42482-3 0  9995
2 61708  53.1596 113.8303 0001183  78.1218 150.1666 15.49321593  5701
STARLINK-32314          
1 61709U 24196C   24332.91667824 -.00021578  00000+0 -38087-3 0  9995
2 61709  53.1596 113.8237 0000987  77.6459 154.4777 15.49317663  5488
STARLINK-32404          
1 61710U 24196D   24332.91667824 -.00012471  00000+0 -21649-3 0  9995
2 61710  53.1596 113.8269 0001084  75.4626 154.7472 15.49312646  5702
STARLINK-32312          
1 61711U 24196E   24333.16667824  .00034288  00000+0  62236-3 0  9999
2 61711  53.1602 112.6189 0001077  85.7564 105.3838 15.49285723  5697
STARLINK-32343          
1 61712U 24196F   24332.91667824 -.00026028  00000+0 -46126-3 0  9997
2 61712  53.1596 113.8198 0000906  97.9158 136.1234 15.49322297  5484
STARLINK-32467          
1 61713U 24196G   24333.16667824 -.01512465  00000+0 -31318-1 0  9997
2 61713  53.1602 112.6149 0001214  70.7183 121.5559 15.48140030  5453
STARLINK-32440          
1 61714U 24196H   24333.16667824  .00009211  00000+0  17354-3 0  9991
2 61714  53.1603 112.6025 0001123  73.9115 124.8965 15.49297153  5375
STARLINK-32459          
1 61715U 24196J   24332.91667824 -.00007207  00000+0 -12162-3 0  9991
2 61715  53.1596 113.8072 0001144  83.2968 156.4909 15.49314402  5607
STARLINK-32465          
1 61716U 24196K   24333.16667824 -.00628470  00000+0 -12141-1 0  9996
2 61716  53.1602 112.6065 0001240 104.3814  92.4640 15.49511784  5587
STARLINK-32457          
1 61717U 24196L   24333.16667824  .00007566  00000+0  14397-3 0  9999
2 61717  53.1602 112.5959 0000918  72.4826 130.1439 15.49305984  5699
STARLINK-32591          
1 61718U 24196M   24333.12062491  .00037651  00000+0  53369-3 0  9995
2 61718  53.1618 112.7064 0000549 270.5390  89.5559 15.56120276  5689
STARLINK-32344          
1 61719U 24196N   24333.16667824  .00005097  00000+0  99644-4 0  9997
2 61719  53.1603 112.5913 0001148  94.4393 110.1045 15.49306158  5696
STARLINK-32322          
1 61720U 24196P   24333.16667824 -.01518322  00000+0 -30575-1 0  9997
2 61720  53.1603 112.5827 0001204  91.0491 117.2442 15.48941364  5699
STARLINK-32469          
1 61721U 24196Q   24332.91667824  .00002362  00000+0  50515-4 0  9998
2 61721  53.1597 113.7843 0001189  76.9310 174.3574 15.49309802  5457
STARLINK-32438          
1 61722U 24196R   24333.16667824  .00001755  00000+0  39621-4 0  9997
2 61722  53.1604 112.5784 0001175  80.2780 130.0248 15.49302307  5698
STARLINK-32540          
1 61723U 24196S   24324.92696842 -.00293709  00000+0 -13184-2 0  9992
2 61723  53.1484 151.8494 0000990 172.1064 187.9976 15.84113142  4266
STARLINK-32528          
1 61724U 24196T   24333.16667824 -.01510042  00000+0 -33479-1 0  9998
2 61724  53.1604 112.5853 0001227  85.7956 120.9674 15.46179692  5372
STARLINK-32573          
1 61725U 24196U   24332.91667824  .00014441  00000+0  26729-3 0  9992
2 61725  53.1599 113.7631 0001179  81.7349 179.1391 15.49302581  5719
STARLINK-32478          
1 61726U 24196V   24332.91667824  .00025944  00000+0  47313-3 0  9995
2 61726  53.1599 113.7586 0001144  81.9470 180.8410 15.49300230  5550
STARLINK-32511          
1 61727U 24196W   24333.16667824 -.00000283  00000+0  29660-5 0  9991
2 61727  53.1604 112.5540 0001145  89.9638 131.8378 15.49303447  5709
STARLINK-32475          
1 61728U 24196X   24333.16667824  .00074619  00000+0  13387-2 0  9991
2 61728  53.1603 112.5500 0001210  88.7167 134.9791 15.49271141  5531
STARLINK-32442          
1 61729U 24196Y   24333.16667824  .00014417  00000+0  26690-3 0  9994
2 61729  53.1603 112.5599 0001177  87.2228 132.6583 15.49298241  5549
COSMOS 2579             
1 61730U 24197A   24333.09562311  .00009827  00000+0  43742-3 0  9990
2 61730  97.5602 241.5757 0008761 159.5707 200.5880 15.21643822  4242
SL-4 R/B                
1 61731U 24197B   24332.89248742  .00097903  00000+0  11088-2 0  9996
2 61731  97.5616 242.6794 0101593 329.2057  30.3260 15.55887759  4272
DSN-3 (KIRAMEKI-3)      
1 61733U 24198A   24332.33105014 -.00000229  00000+0  00000+0 0  9997
2 61733   0.0439  73.1627 0001653 180.6522  76.1577  1.00256393   230
H-3 R/B                 
1 61734U 24198B   24332.01910122  .00100729  97749-6  17256-2 0  9999
2 61734  24.4488 178.3634 7249849 194.3493 121.1996  2.37045110   542
DRAGON CRS-31           
1 61791U 24200A   24332.90817323  .00022340  00000+0  39860-3 0  9998
2 61791  51.6388 224.2748 0006855 275.7348  84.2859 15.49960541  3032
ELECTRON KICK STAGE R/B 
1 61792U 24201A   24333.13279384  .04797647  24225-5  19310-2 0  9996
2 61792  97.9063 240.2262 0108313 189.7441 170.1744 16.10623728  3552
PROTOSAT-1              
1 61793U 24201B   24333.16819565  .00028292  00000+0  38269-2 0  9993
2 61793  97.9244 236.8904 0004123 224.3932 135.6949 14.78941353  3353
STARLINK-32362          
1 61845U 24202A   24332.91667824 -.01481212  00000+0 -24148-1 0  9991
2 61845  43.0005   6.7401 0001756 273.6295 121.1477 15.54963316  4414
STARLINK-32472          
1 61846U 24202B   24332.91667824 -.01480598  00000+0 -24137-1 0  9996
2 61846  43.0005   6.7351 0001782 272.4246 124.2697 15.54962842  4412
STARLINK-32352          
1 61847U 24202C   24332.91667824 -.01483791  00000+0 -24194-1 0  9998
2 61847  43.0005   6.7301 0001661 278.3986 120.2109 15.54965488  4413
STARLINK-32427          
1 61848U 24202D   24332.91667824 -.01484974  00000+0 -24218-1 0  9990
2 61848  43.0004   6.7252 0001343 271.7748 128.7517 15.54965859  4416
STARLINK-32346          
1 61849U 24202E   24332.91667824 -.01485224  00000+0 -24222-1 0  9995
2 61849  43.0004   6.7154 0001377 272.0264 132.3339 15.54966178  4319
STARLINK-32330          
1 61850U 24202F   24332.91667824 -.01484778  00000+0 -24214-1 0  9991
2 61850  43.0003   6.7103 0001384 272.8414 133.4358 15.54965930  4416
